start=new Date('2021-08-29T00:00:00.000Z').valueOf();
sats=[{"RA_OF_ASC_NODE":"356.0920","SEMIMAJOR_AXIS":"6925.315","COUNTRY_CODE":"US","REV_AT_EPOCH":"1592","OBJECT_NAME":"STARLINK-2231","CENTER_NAME":"EARTH","CLASSIFICATION_TYPE":"U","GP_ID":"183639684","OBJECT_TYPE":"PAYLOAD","PERIAPSIS":"546.267","SITE":"AFETR","TLE_LINE1":"1 48577U 21041AA  21240.83089490  .00001479  00000-0  11814-3 0  9998","INCLINATION":"53.0553","OBJECT_ID":"2021-041AA","MEAN_ELEMENT_THEORY":"SGP4","REF_FRAME":"TEME","MEAN_ANOMALY":"216.0638","TLE_LINE2":"2 48577  53.0553 356.0920 0001319 144.0440 216.0638 15.06410862 15926","RCS_SIZE":"LARGE","PERIOD":"95.591","FILE":"3104555","ELEMENT_SET_NO":"999","MEAN_MOTION_DOT":"0.00001479","BSTAR":"0.00011814000000","MEAN_MOTION_DDOT":"0.0000000000000","ECCENTRICITY":"0.00013190","MEAN_MOTION":"15.06410862","EPOCH":"2021-08-28T19:56:29.319360","APOAPSIS":"548.094","TIME_SYSTEM":"UTC","EPHEMERIS_TYPE":"0","DECAY_DATE":null,"LAUNCH_DATE":"2021-05-15","ARG_OF_PERICENTER":"144.0440","NORAD_CAT_ID":"48577"},{"OBJECT_ID":"2021-041AB","MEAN_ELEMENT_THEORY":"SGP4","REF_FRAME":"TEME","OBJECT_TYPE":"PAYLOAD","SITE":"AFETR","TLE_LINE1":"1 48578U 21041AB  21240.81151977  .00000809  00000-0  73203-4 0  9994","PERIAPSIS":"546.409","INCLINATION":"53.0556","REV_AT_EPOCH":"1592","CENTER_NAME":"EARTH","OBJECT_NAME":"STARLINK-2232","GP_ID":"183639502","CLASSIFICATION_TYPE":"U","RA_OF_ASC_NODE":"356.1503","SEMIMAJOR_AXIS":"6925.323","COUNTRY_CODE":"US","LAUNCH_DATE":"2021-05-15","ARG_OF_PERICENTER":"129.3802","NORAD_CAT_ID":"48578","BSTAR":"0.00007320300000","MEAN_MOTION_DDOT":"0.0000000000000","ECCENTRICITY":"0.00011250","EPOCH":"2021-08-28T19:28:35.308128","MEAN_MOTION":"15.06408436","DECAY_DATE":null,"APOAPSIS":"547.967","TIME_SYSTEM":"UTC","EPHEMERIS_TYPE":"0","RCS_SIZE":"LARGE","PERIOD":"95.592","FILE":"3104555","ELEMENT_SET_NO":"999","MEAN_MOTION_DOT":"0.00000809","MEAN_ANOMALY":"230.7287","TLE_LINE2":"2 48578  53.0556 356.1503 0001125 129.3802 230.7287 15.06408436 15928"},{"TLE_LINE2":"2 48579  53.0578 356.1196 0001343 127.1185 232.9927 15.06405575 15929","MEAN_ANOMALY":"232.9927","ELEMENT_SET_NO":"999","MEAN_MOTION_DOT":"0.00000369","RCS_SIZE":"LARGE","PERIOD":"95.592","FILE":"3104555","EPOCH":"2021-08-28T19:40:34.114656","MEAN_MOTION":"15.06405575","DECAY_DATE":null,"EPHEMERIS_TYPE":"0","APOAPSIS":"548.127","TIME_SYSTEM":"UTC","BSTAR":"0.00004366300000","MEAN_MOTION_DDOT":"0.0000000000000","ECCENTRICITY":"0.00013430","NORAD_CAT_ID":"48579","LAUNCH_DATE":"2021-05-15","ARG_OF_PERICENTER":"127.1185","SEMIMAJOR_AXIS":"6925.331","COUNTRY_CODE":"US","RA_OF_ASC_NODE":"356.1196","GP_ID":"183639936","CLASSIFICATION_TYPE":"U","CENTER_NAME":"EARTH","REV_AT_EPOCH":"1592","OBJECT_NAME":"STARLINK-2233","TLE_LINE1":"1 48579U 21041AC  21240.81983929  .00000369  00000-0  43663-4 0  9993","SITE":"AFETR","PERIAPSIS":"546.266","INCLINATION":"53.0578","OBJECT_TYPE":"PAYLOAD","REF_FRAME":"TEME","OBJECT_ID":"2021-041AC","MEAN_ELEMENT_THEORY":"SGP4"},{"COUNTRY_CODE":"US","SEMIMAJOR_AXIS":"6817.559","RA_OF_ASC_NODE":"340.8098","GP_ID":"183639774","CLASSIFICATION_TYPE":"U","REV_AT_EPOCH":"364","OBJECT_NAME":"STARLINK-2234","CENTER_NAME":"EARTH","INCLINATION":"53.0571","TLE_LINE1":"1 48580U 21041AD  21240.91667824 -.00058354  00000-0 -13367-2 0  9994","SITE":"AFETR","PERIAPSIS":"438.039","OBJECT_TYPE":"PAYLOAD","REF_FRAME":"TEME","MEAN_ELEMENT_THEORY":"SGP4","OBJECT_ID":"2021-041AD","TLE_LINE2":"2 48580  53.0571 340.8098 0002032  30.0831 211.8018 15.42266436  3645","MEAN_ANOMALY":"211.8018","MEAN_MOTION_DOT":"-0.00058354","ELEMENT_SET_NO":"999","FILE":"3104555","PERIOD":"93.369","RCS_SIZE":"LARGE","DECAY_DATE":null,"APOAPSIS":"440.809","EPHEMERIS_TYPE":"0","TIME_SYSTEM":"UTC","EPOCH":"2021-08-28T22:00:00.999936","MEAN_MOTION":"15.42266436","MEAN_MOTION_DDOT":"0.0000000000000","ECCENTRICITY":"0.00020320","BSTAR":"-0.00133670000000","NORAD_CAT_ID":"48580","ARG_OF_PERICENTER":"30.0831","LAUNCH_DATE":"2021-05-15"},{"MEAN_ANOMALY":"200.6449","TLE_LINE2":"2 48581  53.0547 342.9330 0001825  37.3572 200.6449 15.42197572  3640","FILE":"3104555","PERIOD":"93.373","RCS_SIZE":"LARGE","MEAN_MOTION_DOT":"-0.00040743","ELEMENT_SET_NO":"999","ECCENTRICITY":"0.00018250","MEAN_MOTION_DDOT":"0.0000000000000","BSTAR":"-0.00093047000000","DECAY_DATE":null,"APOAPSIS":"440.871","EPHEMERIS_TYPE":"0","TIME_SYSTEM":"UTC","EPOCH":"2021-08-28T22:00:00.999936","MEAN_MOTION":"15.42197572","ARG_OF_PERICENTER":"37.3572","LAUNCH_DATE":"2021-05-15","NORAD_CAT_ID":"48581","RA_OF_ASC_NODE":"342.9330","COUNTRY_CODE":"US","SEMIMAJOR_AXIS":"6817.762","REV_AT_EPOCH":"364","CENTER_NAME":"EARTH","OBJECT_NAME":"STARLINK-2235","GP_ID":"183640025","CLASSIFICATION_TYPE":"U","OBJECT_TYPE":"PAYLOAD","INCLINATION":"53.0547","SITE":"AFETR","TLE_LINE1":"1 48581U 21041AE  21240.91667824 -.00040743  00000-0 -93047-3 0  9992","PERIAPSIS":"438.383","MEAN_ELEMENT_THEORY":"SGP4","OBJECT_ID":"2021-041AE","REF_FRAME":"TEME"},{"MEAN_MOTION_DOT":"-0.00009580","ELEMENT_SET_NO":"999","FILE":"3104555","RCS_SIZE":"LARGE","PERIOD":"93.375","TLE_LINE2":"2 48582  53.0572 341.4949 0001699  40.9156 202.2164 15.42170104  3640","MEAN_ANOMALY":"202.2164","NORAD_CAT_ID":"48582","ARG_OF_PERICENTER":"40.9156","LAUNCH_DATE":"2021-05-15","TIME_SYSTEM":"UTC","APOAPSIS":"440.866","EPHEMERIS_TYPE":"0","DECAY_DATE":null,"MEAN_MOTION":"15.42170104","EPOCH":"2021-08-28T22:00:00.999936","MEAN_MOTION_DDOT":"0.0000000000000","ECCENTRICITY":"0.00016990","BSTAR":"-0.00021085000000","GP_ID":"183639843","CLASSIFICATION_TYPE":"U","OBJECT_NAME":"STARLINK-2236","REV_AT_EPOCH":"364","CENTER_NAME":"EARTH","SEMIMAJOR_AXIS":"6817.843","COUNTRY_CODE":"US","RA_OF_ASC_NODE":"341.4949","REF_FRAME":"TEME","MEAN_ELEMENT_THEORY":"SGP4","OBJECT_ID":"2021-041AF","INCLINATION":"53.0572","PERIAPSIS":"438.550","TLE_LINE1":"1 48582U 21041AF  21240.91667824 -.00009580  00000-0 -21085-3 0  9990","SITE":"AFETR","OBJECT_TYPE":"PAYLOAD"},{"COUNTRY_CODE":"US","SEMIMAJOR_AXIS":"6925.322","RA_OF_ASC_NODE":"6.8050","GP_ID":"183639596","CLASSIFICATION_TYPE":"U","OBJECT_NAME":"STARLINK-2237","REV_AT_EPOCH":"1576","CENTER_NAME":"EARTH","TLE_LINE1":"1 48583U 21041AG  21240.66779360  .00001230  00000-0  10140-3 0  9994","SITE":"AFETR","PERIAPSIS":"546.470","INCLINATION":"53.0580","OBJECT_TYPE":"PAYLOAD","REF_FRAME":"TEME","OBJECT_ID":"2021-041AG","MEAN_ELEMENT_THEORY":"SGP4","TLE_LINE2":"2 48583  53.0580   6.8050 0001036 137.5708 222.5361 15.06408519 15760","MEAN_ANOMALY":"222.5361","ELEMENT_SET_NO":"999","MEAN_MOTION_DOT":"0.00001230","PERIOD":"95.592","RCS_SIZE":"LARGE","FILE":"3104555","EPOCH":"2021-08-28T16:01:37.367040","MEAN_MOTION":"15.06408519","DECAY_DATE":null,"APOAPSIS":"547.905","TIME_SYSTEM":"UTC","EPHEMERIS_TYPE":"0","BSTAR":"0.00010140000000","ECCENTRICITY":"0.00010360","MEAN_MOTION_DDOT":"0.0000000000000","NORAD_CAT_ID":"48583","LAUNCH_DATE":"2021-05-15","ARG_OF_PERICENTER":"137.5708"},{"OBJECT_ID":"2021-041AH","MEAN_ELEMENT_THEORY":"SGP4","REF_FRAME":"TEME","OBJECT_TYPE":"PAYLOAD","PERIAPSIS":"546.388","SITE":"AFETR","TLE_LINE1":"1 48584U 21041AH  21240.91667824 -.00039174  00000-0 -26238-2 0  9998","INCLINATION":"53.0544","REV_AT_EPOCH":"359","CENTER_NAME":"EARTH","OBJECT_NAME":"STARLINK-2238","GP_ID":"183640115","CLASSIFICATION_TYPE":"U","RA_OF_ASC_NODE":"5.6819","SEMIMAJOR_AXIS":"6925.274","COUNTRY_CODE":"US","LAUNCH_DATE":"2021-05-15","ARG_OF_PERICENTER":"121.9712","NORAD_CAT_ID":"48584","BSTAR":"-0.00262380000000","ECCENTRICITY":"0.00010840","MEAN_MOTION_DDOT":"0.0000000000000","MEAN_MOTION":"15.06424443","EPOCH":"2021-08-28T22:00:00.999936","TIME_SYSTEM":"UTC","APOAPSIS":"547.889","EPHEMERIS_TYPE":"0","DECAY_DATE":null,"PERIOD":"95.591","RCS_SIZE":"LARGE","FILE":"3104555","ELEMENT_SET_NO":"999","MEAN_MOTION_DOT":"-0.00039174","MEAN_ANOMALY":"288.6454","TLE_LINE2":"2 48584  53.0544   5.6819 0001084 121.9712 288.6454 15.06424443  3594"},{"ELEMENT_SET_NO":"999","MEAN_MOTION_DOT":"-0.00010343","RCS_SIZE":"LARGE","PERIOD":"95.591","FILE":"3104555","TLE_LINE2":"2 48585  53.0556   5.6885 0001273 107.2999 243.3041 15.06411958  3581","MEAN_ANOMALY":"243.3041","NORAD_CAT_ID":"48585","LAUNCH_DATE":"2021-05-15","ARG_OF_PERICENTER":"107.2999","MEAN_MOTION":"15.06411958","EPOCH":"2021-08-28T22:00:00.999936","EPHEMERIS_TYPE":"0","APOAPSIS":"548.059","TIME_SYSTEM":"UTC","DECAY_DATE":null,"BSTAR":"-0.00067625000000","MEAN_MOTION_DDOT":"0.0000000000000","ECCENTRICITY":"0.00012730","GP_ID":"183639685","CLASSIFICATION_TYPE":"U","REV_AT_EPOCH":"358","CENTER_NAME":"EARTH","OBJECT_NAME":"STARLINK-2240","COUNTRY_CODE":"US","SEMIMAJOR_AXIS":"6925.312","RA_OF_ASC_NODE":"5.6885","REF_FRAME":"TEME","OBJECT_ID":"2021-041AJ","MEAN_ELEMENT_THEORY":"SGP4","PERIAPSIS":"546.295","SITE":"AFETR","TLE_LINE1":"1 48585U 21041AJ  21240.91667824 -.00010343  00000-0 -67625-3 0  9992","INCLINATION":"53.0556","OBJECT_TYPE":"PAYLOAD"},{"REF_FRAME":"TEME","MEAN_ELEMENT_THEORY":"SGP4","OBJECT_ID":"2021-041AK","INCLINATION":"53.0555","TLE_LINE1":"1 48586U 21041AK  21240.91667824 -.00050653  00000-0 -34021-2 0  9994","SITE":"AFETR","PERIAPSIS":"546.308","OBJECT_TYPE":"PAYLOAD","GP_ID":"183639503","CLASSIFICATION_TYPE":"U","REV_AT_EPOCH":"359","OBJECT_NAME":"STARLINK-2241","CENTER_NAME":"EARTH","COUNTRY_CODE":"US","SEMIMAJOR_AXIS":"6925.221","RA_OF_ASC_NODE":"5.6894","NORAD_CAT_ID":"48586","ARG_OF_PERICENTER":"116.3194","LAUNCH_DATE":"2021-05-15","DECAY_DATE":null,"TIME_SYSTEM":"UTC","APOAPSIS":"547.864","EPHEMERIS_TYPE":"0","EPOCH":"2021-08-28T22:00:00.999936","MEAN_MOTION":"15.06441646","ECCENTRICITY":"0.00011240","MEAN_MOTION_DDOT":"0.0000000000000","BSTAR":"-0.00340210000000","MEAN_MOTION_DOT":"-0.00050653","ELEMENT_SET_NO":"999","FILE":"3104555","PERIOD":"95.589","RCS_SIZE":"LARGE","TLE_LINE2":"2 48586  53.0555   5.6894 0001124 116.3194 274.2416 15.06441646  3591","MEAN_ANOMALY":"274.2416"}];
